NORAD_CAT_ID,OBJECT_NAME,OBJECT_TYPE,EPOCH,MEAN_MOTION,ECCENTRICITY,INCLINATION,RA_OF_ASC_NODE,ARG_OF_PERICENTER,MEAN_ANOMALY,BSTAR,MEAN_MOTION_DOT,MEAN_MOTION_DDOT,TLE_LINE0,TLE_LINE1,TLE_LINE2,SEMIMAJOR_AXIS,PERIOD,APOGEE,PERIGEE,DECAYED
54009.0,STARLINK-5099,PAYLOAD,2024-05-24 14:31:50,15.08842289,0.0001521,53.2166,270.0274,76.2071,283.9091,0.0001597,2.255e-05,0.0,0 STARLINK-5099,1 54009U 22125AX  24145.60544109  .00002255  00000-0  15970-3 0  9994,2 54009  53.2166 270.0274 0001521  76.2071 283.9091 15.08842289 90724,6917.873,95.437,540.791,538.686,0.0
54009.0,STARLINK-5099,PAYLOAD,2024-05-24 16:07:12,15.08850218,0.0001384,53.217,269.7258,95.5699,264.5451,0.00026915,3.999e-05,0.0,0 STARLINK-5099,1 54009U 22125AX  24145.67167622  .00003999  00000-0  26915-3 0  9999,2 54009  53.2170 269.7258 0001384  95.5699 264.5451 15.08850218 90785,6917.849,95.437,540.672,538.757,0.0
54009.0,STARLINK-5099,PAYLOAD,2024-05-25 12:47:13,15.08839221,0.0001226,53.2163,265.8521,120.7527,239.3586,6.7982e-05,7.94e-06,0.0,0 STARLINK-5099,1 54009U 22125AX  24146.53279930  .00000794  00000-0  67982-4 0  9991,2 54009  53.2163 265.8521 0001226 120.7527 239.3586 15.08839221 90918,6917.883,95.438,540.596,538.9,0.0
54009.0,STARLINK-5099,PAYLOAD,2024-05-25 14:22:37,15.08826057,0.0001243,53.217,265.5665,68.4947,291.6178,-9.7714e-05,-1.842e-05,0.0,0 STARLINK-5099,1 54009U 22125AX  24146.59904837 -.00001842  00000-0 -97714-4 0  9991,2 54009  53.2170 265.5665 0001243  68.4947 291.6178 15.08826057 90871,6917.923,95.438,540.648,538.928,0.0
54009.0,STARLINK-5099,PAYLOAD,2024-05-26 01:30:19,15.0883778,0.0001354,53.2171,263.4851,73.1388,286.9753,9.173e-05,1.172e-05,0.0,0 STARLINK-5099,1 54009U 22125AX  24147.06272847  .00001172  00000-0  91730-4 0  9999,2 54009  53.2171 263.4851 0001354  73.1388 286.9753 15.08837780 90995,6917.887,95.438,540.689,538.815,0.0
54009.0,STARLINK-5099,PAYLOAD,2024-05-26 14:13:24,15.08840282,0.0001431,53.2174,261.1058,82.3123,277.8032,9.1384e-05,1.167e-05,0.0,0 STARLINK-5099,1 54009U 22125AX  24147.59264559  .00001167  00000-0  91384-4 0  9997,2 54009  53.2174 261.1058 0001431  82.3123 277.8032 15.08840282 91022,6917.88,95.438,540.734,538.755,0.0
54009.0,STARLINK-5099,PAYLOAD,2024-05-26 17:24:10,15.08844039,0.0001479,53.2174,260.5088,95.3836,264.7325,8.3053e-05,1.034e-05,0.0,0 STARLINK-5099,1 54009U 22125AX  24147.72512277  .00001034  00000-0  83053-4 0  9992,2 54009  53.2174 260.5088 0001479  95.3836 264.7325 15.08844039 91041,6917.868,95.437,540.756,538.71,0.0
54009.0,STARLINK-5099,PAYLOAD,2024-05-27 12:28:48,15.08840409,0.0001384,53.2173,256.94,91.5957,268.5194,0.00024739,3.652e-05,0.0,0 STARLINK-5099,1 54009U 22125AX  24148.52000445  .00003652  00000-0  24739-3 0  9993,2 54009  53.2173 256.9400 0001384  91.5957 268.5194 15.08840409 91216,6917.879,95.438,540.702,538.787,0.0
54009.0,STARLINK-5099,PAYLOAD,2024-05-27 14:04:10,15.08871462,0.000148,53.217,256.6438,96.5652,263.5509,0.00027541,4.102e-05,0.0,0 STARLINK-5099,1 54009U 22125AX  24148.58622840  .00004102  00000-0  27541-3 0  9993,2 54009  53.2170 256.6438 0001480  96.5652 263.5509 15.08871462 91178,6917.784,95.436,540.673,538.625,0.0
54009.0,STARLINK-5099,PAYLOAD,2024-05-27 17:14:57,15.08841344,0.0001404,53.2174,256.0484,91.5121,268.6032,0.00023095,3.39e-05,0.0,0 STARLINK-5099,1 54009U 22125AX  24148.71872415  .00003390  00000-0  23095-3 0  9991,2 54009  53.2174 256.0484 0001404  91.5121 268.6032 15.08841344 91194,6917.876,95.437,540.713,538.77,0.0
54009.0,STARLINK-5099,PAYLOAD,2024-05-28 13:54:58,15.08839884,0.000129,53.2173,252.1816,98.9066,261.2072,5.4854e-05,5.85e-06,0.0,0 STARLINK-5099,1 54009U 22125AX  24149.57984536  .00000585  00000-0  54854-4 0  9995,2 54009  53.2173 252.1816 0001290  98.9066 261.2072 15.08839884 91325,6917.881,95.438,540.638,538.853,0.0
54009.0,STARLINK-5099,PAYLOAD,2024-05-29 13:45:45,15.08838505,0.0001278,53.2172,247.7214,92.4478,267.6661,4.5678e-05,4.39e-06,0.0,0 STARLINK-5099,1 54009U 22125AX  24150.57344653  .00000439  00000-0  45678-4 0  9999,2 54009  53.2172 247.7214 0001278  92.4478 267.6661 15.08838505 91477,6917.885,95.438,540.634,538.866,0.0
54009.0,STARLINK-5099,PAYLOAD,2024-05-29 15:21:08,15.08839488,0.0001266,53.2171,247.4241,89.0708,271.0429,4.9056e-05,4.93e-06,0.0,0 STARLINK-5099,1 54009U 22125AX  24150.63968582  .00000493  00000-0  49056-4 0  9993,2 54009  53.2171 247.4241 0001266  89.0708 271.0429 15.08839488 91537,6917.882,95.438,540.623,538.871,0.0
54009.0,STARLINK-5099,PAYLOAD,2024-05-30 13:36:32,15.08844826,0.0001242,53.2168,243.2626,84.581,275.5324,0.00016283,2.305e-05,0.0,0 STARLINK-5099,1 54009U 22125AX  24151.56704126  .00002305  00000-0  16283-3 0  9997,2 54009  53.2168 243.2626 0001242  84.5810 275.5324 15.08844826 91627,6917.866,95.437,540.59,538.871,0.0
54009.0,STARLINK-5099,PAYLOAD,2024-05-30 15:11:55,15.08846079,0.0001249,53.2168,242.9649,83.9984,276.115,0.00017005,2.42e-05,0.0,0 STARLINK-5099,1 54009U 22125AX  24151.63328045  .00002420  00000-0  17005-3 0  9998,2 54009  53.2168 242.9649 0001249  83.9984 276.1150 15.08846079 91637,6917.862,95.437,540.591,538.863,0.0
54009.0,STARLINK-5099,PAYLOAD,2024-05-31 05:30:23,15.08845075,0.0001311,53.2167,240.291,78.9619,281.152,0.00011971,1.618e-05,0.0,0 STARLINK-5099,1 54009U 22125AX  24152.22944221  .00001618  00000-0  11971-3 0  9998,2 54009  53.2167 240.2910 0001311  78.9619 281.1520 15.08845075 91774,6917.865,95.437,540.637,538.823,0.0
54009.0,STARLINK-5099,PAYLOAD,2024-05-31 11:51:56,15.08843271,0.0001324,53.2169,239.0997,79.2876,280.8265,9.4104e-05,1.21e-05,0.0,0 STARLINK-5099,1 54009U 22125AX  24152.49440390  .00001210  00000-0  94104-4 0  9993,2 54009  53.2169 239.0997 0001324  79.2876 280.8265 15.08843271 91767,6917.87,95.437,540.651,538.819,0.0
54009.0,STARLINK-5099,PAYLOAD,2024-05-31 15:02:42,15.08846764,0.0001294,53.217,238.5037,84.7397,275.3743,0.00012229,1.659e-05,0.0,0 STARLINK-5099,1 54009U 22125AX  24152.62688041  .00001659  00000-0  12229-3 0  9999,2 54009  53.2170 238.5037 0001294  84.7397 275.3743 15.08846764 91785,6917.86,95.437,540.62,538.83,0.0
54009.0,STARLINK-5099,PAYLOAD,2024-06-01 11:42:43,15.08837409,0.0001265,53.2168,234.6385,90.1095,270.0042,-4.1917e-05,-9.55e-06,0.0,0 STARLINK-5099,1 54009U 22125AX  24153.48800885 -.00000955  00000-0 -41917-4 0  9993,2 54009  53.2168 234.6385 0001265  90.1095 270.0042 15.08837409 91969,6917.888,95.438,540.628,538.878,0.0
54009.0,STARLINK-5099,PAYLOAD,2024-06-01 14:53:29,15.08843328,0.0001709,53.2181,234.045,105.2363,254.8818,-3.4597e-05,-8.39e-06,0.0,0 STARLINK-5099,1 54009U 22125AX  24153.62048537 -.00000839  00000-0 -34597-4 0  9994,2 54009  53.2181 234.0450 0001709 105.2363 254.8818 15.08843328 91980,6917.87,95.437,540.917,538.553,0.0
54009.0,STARLINK-5099,PAYLOAD,2024-06-02 11:33:30,15.08839445,0.0001606,53.2174,230.1797,93.7761,266.3414,0.00012089,1.636e-05,0.0,0 STARLINK-5099,1 54009U 22125AX  24154.48160476  .00001636  00000-0  12089-3 0  9991,2 54009  53.2174 230.1797 0001606  93.7761 266.3414 15.08839445 92067,6917.882,95.438,540.858,538.636,0.0
54009.0,STARLINK-5099,PAYLOAD,2024-06-03 11:24:17,15.08841653,0.0001359,53.2153,225.7209,83.8951,276.2196,0.00018786,2.703e-05,0.0,0 STARLINK-5099,1 54009U 22125AX  24155.47520377  .00002703  00000-0  18786-3 0  9997,2 54009  53.2153 225.7209 0001359  83.8951 276.2196 15.08841653 92261,6917.875,95.437,540.68,538.8,0.0
54009.0,STARLINK-5099,PAYLOAD,2024-06-03 14:35:03,15.08848284,0.0001382,53.2149,225.1259,83.3641,276.7508,0.00016854,2.396e-05,0.0,0 STARLINK-5099,1 54009U 22125AX  24155.60768052  .00002396  00000-0  16854-3 0  9998,2 54009  53.2149 225.1259 0001382  83.3641 276.7508 15.08848284 92238,6917.855,95.437,540.676,538.764,0.0
54009.0,STARLINK-5099,PAYLOAD,2024-06-04 11:15:04,15.08840633,0.0001325,53.2156,221.2571,90.0902,270.0242,0.00010767,1.426e-05,0.0,0 STARLINK-5099,1 54009U 22125AX  24156.46880455  .00001426  00000-0  10767-3 0  9995,2 54009  53.2156 221.2571 0001325  90.0902 270.0242 15.08840633 92368,6917.878,95.438,540.66,538.827,0.0
54009.0,STARLINK-5099,PAYLOAD,2024-06-04 20:47:22,15.08853368,0.0001414,53.2165,219.4721,89.1143,271.0011,0.00015815,2.231e-05,0.0,0 STARLINK-5099,1 54009U 22125AX  24156.86623385  .00002231  00000-0  15815-3 0  9990,2 54009  53.2165 219.4721 0001414  89.1143 271.0011 15.08853368 92420,6917.84,95.437,540.683,538.726,0.0
54009.0,STARLINK-5099,PAYLOAD,2024-06-05 11:05:52,15.08832458,0.0001361,53.2157,216.7984,88.9771,271.1377,-3.8277e-05,-8.97e-06,0.0,0 STARLINK-5099,1 54009U 22125AX  24157.46241311 -.00000897  00000-0 -38277-4 0  9998,2 54009  53.2157 216.7984 0001361  88.9771 271.1377 15.08832458 92565,6917.903,95.438,540.71,538.827,0.0
54009.0,STARLINK-5099,PAYLOAD,2024-06-05 20:38:10,15.08839876,0.000143,53.2161,215.0146,92.3769,267.7387,8.1872e-06,-1.58e-06,0.0,0 STARLINK-5099,1 54009U 22125AX  24157.85984816 -.00000158  00000-0  81872-5 0  9994,2 54009  53.2161 215.0146 0001430  92.3769 267.7387 15.08839876 92625,6917.881,95.438,540.735,538.757,0.0
54009.0,STARLINK-5099,PAYLOAD,2024-06-06 10:56:39,15.0883801,0.0001481,53.2164,212.3397,97.8865,262.2295,0.00010759,1.425e-05,0.0,0 STARLINK-5099,1 54009U 22125AX  24158.45600902  .00001425  00000-0  10759-3 0  9993,2 54009  53.2164 212.3397 0001481  97.8865 262.2295 15.08838010 92660,6917.886,95.438,540.776,538.727,0.0
54009.0,STARLINK-5099,PAYLOAD,2024-06-07 09:12:03,15.08836998,0.0001492,53.2166,208.1773,104.1117,256.0041,0.00018561,2.667e-05,0.0,0 STARLINK-5099,1 54009U 22125AX  24159.38337208  .00002667  00000-0  18561-3 0  9990,2 54009  53.2166 208.1773 0001492 104.1117 256.0041 15.08836998 92851,6917.89,95.438,540.787,538.722,0.0
54009.0,STARLINK-5099,PAYLOAD,2024-06-07 20:19:45,15.08844468,0.0001279,53.2147,206.0932,89.4532,270.6607,0.00019057,2.747e-05,0.0,0 STARLINK-5099,1 54009U 22125AX  24159.84704913  .00002747  00000-0  19057-3 0  9992,2 54009  53.2147 206.0932 0001279  89.4532 270.6607 15.08844468 92876,6917.867,95.437,540.617,538.847,0.0
